[{"OBJECT_NAME":"STARLINK-1835","OBJECT_ID":"2020-074AV","EPOCH":"2026-03-10T00:00:02.999808","MEAN_MOTION":15.58512564,"ECCENTRICITY":0.00054997,"INCLINATION":53.0462,"RA_OF_ASC_NODE":273.318,"ARG_OF_PERICENTER":13.506,"MEAN_ANOMALY":307.0156,"EPHEMERIS_TYPE":0,"CLASSIFICATION_TYPE":"U","NORAD_CAT_ID":46782,"ELEMENT_SET_NO":999,"REV_AT_EPOCH":583,"BSTAR":0.0023118228,"MEAN_MOTION_DOT":0.00183599,"MEAN_MOTION_DDOT":0},{"OBJECT_NAME":"OBJECT J","OBJECT_ID":"2024-024J","EPOCH":"2026-03-09T22:26:40.644960","MEAN_MOTION":15.61039884,"ECCENTRICITY":0.00047739,"INCLINATION":97.3173,"RA_OF_ASC_NODE":156.0296,"ARG_OF_PERICENTER":106.4424,"MEAN_ANOMALY":253.7358,"EPHEMERIS_TYPE":0,"CLASSIFICATION_TYPE":"U","NORAD_CAT_ID":58925,"ELEMENT_SET_NO":999,"REV_AT_EPOCH":15415,"BSTAR":0.00080019635,"MEAN_MOTION_DOT":0.00067611,"MEAN_MOTION_DDOT":0}]
